SIRIUS-1                
1 26390U 00035A   15286.19799887 -.00000034  00000-0  00000+0 0  9995
2 26390  59.7546 235.2253 2633804 268.6720 214.3747  1.00278783 55988
SIRIUS-2                
1 26483U 00051A   15281.18635925  .00000085  00000-0  00000-0 0  9998
2 26483  64.4195 115.2240 2737356 268.2793 326.1348  1.00274590  6022
SIRIUS-3                
1 26626U 00077A   15289.10954964 -.00000106  00000-0  00000+0 0  9996
2 26626  64.4556 355.1331 2668102 269.1802  65.0196  1.00279974 54496
XM-1 (ROLL)             
1 26761U 01018A   15288.24498666 -.00000028  00000-0  10000-3 0  9996
2 26761   0.1188 253.8094 0005239  88.0965  14.5127  1.00272320 52934
XM-3 (RHYTHM)           
1 28626U 05008A   15289.28379022 -.00000211  00000-0  00000+0 0  9999
2 28626   0.0031 332.1395 0000218 183.1310 246.3108  1.00272415 38999
XM-4 (BLUES)            
1 29520U 06049A   15289.53140499 -.00000028  00000-0  00000+0 0  9997
2 29520   0.0065 231.2345 0000402 207.3289  22.2696  1.00270275 32925
O3B FM5                 
1 39188U 13031A   15288.43830969 -.00000023  00000-0  00000+0 0  9998
2 39188   0.0488  12.4348 0007260 146.0019 201.6006  5.00115565 42110
O3B FM4                 
1 39189U 13031B   15288.57172485 -.00000023  00000-0  00000+0 0  9996
2 39189   0.0440 334.8122 0003286 332.3665  52.7984  5.00116632 42128
O3B FM2                 
1 39190U 13031C   15288.52700989 -.00000023  00000-0  00000+0 0  9999
2 39190   0.0484 332.7359 0003882 329.5968  57.6371  5.00116890 42112
O3B PFM                 
1 39191U 13031D   15288.72824476 -.00000023  00000-0  00000-0 0  9991
2 39191   0.0460   8.8261 0001961 179.2555 171.9223  5.00115312 42123
O3B FM3                 
1 40079U 14038A   15287.44051478 -.00000025  00000-0  00000-0 0  9990
2 40079   0.0439 346.8087 0004189 187.5368 185.6664  5.00115868 23054
O3B FM7                 
1 40080U 14038B   15287.79578108 -.00000024  00000-0  00000+0 0  9992
2 40080   0.0432 348.8997 0003065 200.3517 170.7520  5.00115625 23094
O3B FM6                 
1 40081U 14038C   15288.41749457 -.00000023  00000-0  00000-0 0  9990
2 40081   0.0446 346.2551 0003288 200.3310 173.4168  5.00116055 23126
O3B FM8                 
1 40082U 14038D   15288.46212589 -.00000023  00000-0  00000-0 0  9997
2 40082   0.0432 340.6942 0001769 194.6766 184.6380  5.00115514 23103
O3B FM10                
1 40348U 14083A   15288.48446117 -.00000023  00000-0  00000-0 0  9990
2 40348   0.0457 354.6943 0003365 218.8444 146.4470  5.00115492 15064
O3B FM11                
1 40349U 14083B   15288.50649814 -.00000023  00000-0  00000-0 0  9993
2 40349   0.0449 358.6473 0002812 218.2046 143.1358  5.00115769 15062
O3B FM12                
1 40350U 14083C   15288.57341649 -.00000023  00000-0  00000-0 0  9997
2 40350   0.0457 356.6547 0002426 206.0657 157.2764  5.00115888 15066
O3B FM9                 
1 40351U 14083D   15288.55100815 -.00000023  00000-0  00000-0 0  9994
2 40351   0.0458 357.5349 0003010 215.2336 147.2199  5.00115816 15066
